[Satellite]
VERSION=1.1
NAME=BEIDOU G5
NICKNAME=BEIDOU G5
TLE1=1 38091U 12008A   17186.13344600  .00000050  00000-0  00000-0 0  9991
TLE2=2 38091   2.2472  56.9012 0002055 214.7361 118.4703  1.00268325 19695
